STARLINK-32268          
1 60372U 24138T   26068.88691969 -.00004669  00000+0 -14555-3 0  9993
2 60372  53.1601 308.9853 0001000  81.4408 278.6706 15.30215525 90653
NUSAT-50 (NANCY ROMAN)  
1 60493U 24149AB  26068.80227738  .00012094  00000+0  42252-3 0  9994
2 60493  97.3817 150.7693 0002523 238.0469 122.0527 15.29713355 86930
